[
    {
        "CCSDS_OMM_VERS": "3.0",
        "COMMENT": "GENERATED VIA SPACE-TRACK.ORG API",
        "CREATION_DATE": "2025-04-12T22:09:39",
        "ORIGINATOR": "18 SPCS",
        "OBJECT_NAME": "GALILEO 25 (2C1)",
        "OBJECT_ID": "2018-060A",
        "CENTER_NAME": "EARTH",
        "REF_FRAME": "TEME",
        "TIME_SYSTEM": "UTC",
        "MEAN_ELEMENT_THEORY": "SGP4",
        "EPOCH": "2025-04-11T22:12:12.420864",
        "MEAN_MOTION": "1.70475697",
        "ECCENTRICITY": "0.00043220",
        "INCLINATION": "57.2788",
        "RA_OF_ASC_NODE": "353.4194",
        "ARG_OF_PERICENTER": "312.3499",
        "MEAN_ANOMALY": "47.6570",
        "EPHEMERIS_TYPE": "0",
        "CLASSIFICATION_TYPE": "U",
        "NORAD_CAT_ID": "43564",
        "ELEMENT_SET_NO": "999",
        "REV_AT_EPOCH": "4181",
        "BSTAR": "0.00000000000000",
        "MEAN_MOTION_DOT": "-0.00000097",
        "MEAN_MOTION_DDOT": "0.0000000000000",
        "SEMIMAJOR_AXIS": "29600.124",
        "PERIOD": "844.695",
        "APOAPSIS": "23234.782",
        "PERIAPSIS": "23209.195",
        "OBJECT_TYPE": "PAYLOAD",
        "RCS_SIZE": "LARGE",
        "COUNTRY_CODE": "ESA",
        "LAUNCH_DATE": "2018-07-25",
        "SITE": "FRGUI",
        "DECAY_DATE": null,
        "FILE": "4699941",
        "GP_ID": "285447290",
        "TLE_LINE0": "0 GALILEO 25 (2C1)",
        "TLE_LINE1": "1 43564U 18060A   25101.92514376 -.00000097  00000-0  00000-0 0  9990",
        "TLE_LINE2": "2 43564  57.2788 353.4194 0004322 312.3499  47.6570  1.70475697 41811"
    }
]